GLOBALSTAR M063 [+]     
1 26081U 00008A   24012.38057575 -.00000024  00000+0  85260-3 0  9994
2 26081  51.9967  45.7965 0004395  39.2009  59.1617 11.86149691 95656
GLOBALSTAR M062 [-]     
1 26082U 00008B   24013.47075854 -.00000077  00000+0  15569-3 0  9999
2 26082  51.9818 186.9999 0008254  83.1641 294.6548 12.43425518 94348
GLOBALSTAR M060 [-]     
1 26083U 00008C   24013.12358493  .00000066  00000+0  15657-2 0  9999
2 26083  52.0029  74.3141 0004022 145.8793 229.4123 12.17622462 89063
GLOBALSTAR M064 [-]     
1 26084U 00008D   24013.39491453 -.00000081  00000+0  35309-4 0  9999
2 26084  52.0017 148.0942 0002528 126.6207 233.4859 11.88514622105284
GLOBALSTAR M065 [+]     
1 31571U 07020A   24013.41280019 -.00000088  00000+0  84630-4 0  9992
2 31571  51.9913  11.2693 0009804 232.7134 274.8232 12.61961784767959
GLOBALSTAR M069 [+]     
1 31573U 07020C   24012.86172351 -.00000068  00000+0  19918-3 0  9995
2 31573  51.9975 328.9777 0000903  20.9036 357.8666 12.62263951768719
GLOBALSTAR M072 [+]     
1 31574U 07020D   24012.48114737 -.00000127  00000+0 -12903-3 0  9992
2 31574  52.0097  65.9322 0000713 173.0784 294.2392 12.62269050766938
GLOBALSTAR M071 [P]     
1 31576U 07020F   24013.05969808 -.00000074  00000+0  16677-3 0  9997
2 31576  52.0090 333.4185 0001209  35.9828  42.3854 12.62264537768650
